STARLINK-6356
1 57363U 23099AM  26092.83335647  .00050463  00000+0  26923-2 0  9996
2 57363  42.9999 104.2441 0001764 271.4785 116.4289 15.14411271  5661
